{"updated_at":"2026-06-13T18:15:51.214023Z","count":200,"data":[{"NORAD_CAT_ID":"69369","OBJECT_NAME":"STARLINK-37631","OBJECT_ID":"2026-123S","EPOCH":"2026-06-13T14:00:01.999872","TLE_LINE1":"1 69369U 26123S   26164.58335648 -.02066101  11638-2 -59262-2 0  9993","TLE_LINE2":"2 69369  53.1566 259.4560 0000863  58.3958 224.7053 15.92645807  2627"},{"NORAD_CAT_ID":"69370","OBJECT_NAME":"STARLINK-37673","OBJECT_ID":"2026-123T","EPOCH":"2026-06-13T14:00:01.999872","TLE_LINE1":"1 69370U 26123T   26164.58335648 -.02031860  11227-2 -59659-2 0  9993","TLE_LINE2":"2 69370  53.1566 259.4405 0000967  65.6581 224.8533 15.92192622  2621"},{"NORAD_CAT_ID":"69371","OBJECT_NAME":"STARLINK-37645","OBJECT_ID":"2026-123U","EPOCH":"2026-06-13T14:00:01.999872","TLE_LINE1":"1 69371U 26123U   26164.58335648 -.02168533  12576-2 -66626-2 0  9992","TLE_LINE2":"2 69371  53.1567 259.4445 0000858  65.9777 222.5450 15.91332176  2628"},{"NORAD_CAT_ID":"69372","OBJECT_NAME":"STARLINK-37688","OBJECT_ID":"2026-123V","EPOCH":"2026-06-13T14:00:01.999872","TLE_LINE1":"1 69372U 26123V   26164.58335648 -.01857163  00000-0 -69366-2 0  9997","TLE_LINE2":"2 69372  53.1565 259.3993 0000945  61.7890 248.2393 15.90299574  2625"},{"NORAD_CAT_ID":"69373","OBJECT_NAME":"STARLINK-37685","OBJECT_ID":"2026-123W","EPOCH":"2026-06-13T14:00:01.999872","TLE_LINE1":"1 69373U 26123W   26164.58335648 -.01846348  00000-0 -69260-2 0  9994","TLE_LINE2":"2 69373  53.1564 259.3913 0000994  63.5864 250.2821 15.90195871  2626"},{"NORAD_CAT_ID":"69374","OBJECT_NAME":"STARLINK-37632","OBJECT_ID":"2026-123X","EPOCH":"2026-06-13T14:00:01.999872","TLE_LINE1":"1 69374U 26123X   26164.58335648 -.01858856  00000-0 -69629-2 0  9991","TLE_LINE2":"2 69374  53.1563 259.3843 0000919  61.7229 255.5714 15.90247534  2577"},{"NORAD_CAT_ID":"69375","OBJECT_NAME":"STARLINK-37454","OBJECT_ID":"2026-123Y","EPOCH":"2026-06-13T14:00:01.999872","TLE_LINE1":"1 69375U 26123Y   26164.58335648 -.01838526  00000-0 -68989-2 0  9992","TLE_LINE2":"2 69375  53.1563 259.3694 0000864  59.4583 264.7567 15.90176953  2718"},{"NORAD_CAT_ID":"69376","OBJECT_NAME":"STARLINK-37485","OBJECT_ID":"2026-123Z","EPOCH":"2026-06-13T14:00:01.999872","TLE_LINE1":"1 69376U 26123Z   26164.58335648 -.01846088  00000-0 -69286-2 0  9996","TLE_LINE2":"2 69376  53.1562 259.3604 0000876  58.7394 269.7447 15.90186904  2713"},{"NORAD_CAT_ID":"69377","OBJECT_NAME":"STARLINK-37439","OBJECT_ID":"2026-123AA","EPOCH":"2026-06-13T14:00:01.999872","TLE_LINE1":"1 69377U 26123AA  26164.58335648 -.02120346  12128-2 -63165-2 0  9996","TLE_LINE2":"2 69377  53.1560 259.3058 0000882  64.0165 290.7224 15.91924268  2573"},{"NORAD_CAT_ID":"69378","OBJECT_NAME":"STARLINK-37376","OBJECT_ID":"2026-123AB","EPOCH":"2026-06-13T14:00:01.999872","TLE_LINE1":"1 69378U 26123AB  26164.58335648 -.02091134  11710-2 -65213-2 0  9991","TLE_LINE2":"2 69378  53.1561 259.3212 0000829  66.2074 281.0344 15.91033105  2714"},{"NORAD_CAT_ID":"69379","OBJECT_NAME":"STARLINK-37383","OBJECT_ID":"2026-123AC","EPOCH":"2026-06-13T14:00:01.999872","TLE_LINE1":"1 69379U 26123AC  26164.58335648 -.02120455  12117-2 -63486-2 0  9993","TLE_LINE2":"2 69379  53.1555 259.2612 0000911  61.4395 314.4029 15.91827393  2717"},{"NORAD_CAT_ID":"69380","OBJECT_NAME":"STARLINK-37411","OBJECT_ID":"2026-123AD","EPOCH":"2026-06-13T14:00:01.999872","TLE_LINE1":"1 69380U 26123AD  26164.58335648 -.02107602  11887-2 -65643-2 0  9994","TLE_LINE2":"2 69380  53.1561 259.3060 0000792  61.5344 292.7293 15.91060043  2718"},{"NORAD_CAT_ID":"69381","OBJECT_NAME":"STARLINK-37427","OBJECT_ID":"2026-123AE","EPOCH":"2026-06-13T14:00:01.999872","TLE_LINE1":"1 69381U 26123AE  26164.58335648 -.02047719  11357-2 -61078-2 0  9997","TLE_LINE2":"2 69381  53.1560 259.2750 0000903  62.7591 306.5167 15.91891496  2622"},{"NORAD_CAT_ID":"69382","OBJECT_NAME":"QIANFAN-165","OBJECT_ID":"2026-124A","EPOCH":"2026-06-12T21:11:41.393472","TLE_LINE1":"1 69382U 26124A   26163.88311798 -.02084539  00000-0 -10644+1 0  9994","TLE_LINE2":"2 69382  88.9978   2.5286 0004116 184.3071 175.8085 14.19919653  1203"},{"NORAD_CAT_ID":"69383","OBJECT_NAME":"QIANFAN-166","OBJECT_ID":"2026-124B","EPOCH":"2026-06-13T07:17:31.541856","TLE_LINE1":"1 69383U 26124B   26164.30383729  .00000101  00000-0  38346-4 0  9998","TLE_LINE2":"2 69383  89.0165   2.4476 0003303 197.5745 162.5333 14.22919900  1269"},{"NORAD_CAT_ID":"69384","OBJECT_NAME":"QIANFAN-167","OBJECT_ID":"2026-124C","EPOCH":"2026-06-12T21:08:46.152672","TLE_LINE1":"1 69384U 26124C   26163.88108973 -.02041980  00000-0 -10244+1 0  9994","TLE_LINE2":"2 69384  88.9978   2.5284 0002106 162.2755 197.8509 14.20776910  1208"},{"NORAD_CAT_ID":"69385","OBJECT_NAME":"QIANFAN-168","OBJECT_ID":"2026-124D","EPOCH":"2026-06-13T00:30:54.133632","TLE_LINE1":"1 69385U 26124D   26164.02145988  .00000104  00000-0  38459-4 0  9990","TLE_LINE2":"2 69385  88.9982   2.5154 0003353 123.5245 236.6268 14.24420262  1225"},{"NORAD_CAT_ID":"69386","OBJECT_NAME":"QIANFAN-169","OBJECT_ID":"2026-124E","EPOCH":"2026-06-13T05:33:39.820896","TLE_LINE1":"1 69386U 26124E   26164.23171089  .00000128  00000-0  48025-4 0  9991","TLE_LINE2":"2 69386  88.9745   2.4544 0013370 149.5722 210.6250 14.25310421  1255"},{"NORAD_CAT_ID":"69387","OBJECT_NAME":"QIANFAN-170","OBJECT_ID":"2026-124F","EPOCH":"2026-06-13T07:14:19.079808","TLE_LINE1":"1 69387U 26124F   26164.30160972  .00000233  00000-0  92255-4 0  9990","TLE_LINE2":"2 69387  88.9983   2.4799 0002081 165.6028 194.5224 14.25630011  1269"},{"NORAD_CAT_ID":"69388","OBJECT_NAME":"QIANFAN-171","OBJECT_ID":"2026-124G","EPOCH":"2026-06-13T12:17:03.112512","TLE_LINE1":"1 69388U 26124G   26164.51184158  .00000103  00000-0  37379-4 0  9998","TLE_LINE2":"2 69388  88.9984   2.4556 0002031 190.1034 170.0118 14.25624109  1292"},{"NORAD_CAT_ID":"69389","OBJECT_NAME":"QIANFAN-172","OBJECT_ID":"2026-124H","EPOCH":"2026-06-13T08:55:02.583552","TLE_LINE1":"1 69389U 26124H   26164.37155768  .00000101  00000-0  36495-4 0  9994","TLE_LINE2":"2 69389  88.9983   2.4718 0002305 181.6947 178.4239 14.25677311  1271"},{"NORAD_CAT_ID":"69390","OBJECT_NAME":"QIANFAN-173","OBJECT_ID":"2026-124J","EPOCH":"2026-06-13T13:57:47.742048","TLE_LINE1":"1 69390U 26124J   26164.58180257  .00000104  00000-0  37664-4 0  9992","TLE_LINE2":"2 69390  88.9984   2.4475 0002487 170.9207 189.2032 14.25636517  1303"},{"NORAD_CAT_ID":"69391","OBJECT_NAME":"QIANFAN-174","OBJECT_ID":"2026-124K","EPOCH":"2026-06-13T12:16:14.205792","TLE_LINE1":"1 69391U 26124K   26164.51127553 -.00000010  00000-0 -10263-4 0  9990","TLE_LINE2":"2 69391  88.9981   2.4554 0002053 166.0475 194.0775 14.25793285  1293"},{"NORAD_CAT_ID":"69392","OBJECT_NAME":"QIANFAN-175","OBJECT_ID":"2026-124L","EPOCH":"2026-06-13T13:57:12.488256","TLE_LINE1":"1 69392U 26124L   26164.58139454  .00000104  00000-0  37644-4 0  9995","TLE_LINE2":"2 69392  88.9984   2.4474 0002669 178.9604 181.1596 14.25625442  1306"},{"NORAD_CAT_ID":"69393","OBJECT_NAME":"QIANFAN-176","OBJECT_ID":"2026-124M","EPOCH":"2026-06-13T13:56:57.858144","TLE_LINE1":"1 69393U 26124M   26164.58122521  .00000104  00000-0  37634-4 0  9992","TLE_LINE2":"2 69393  88.9984   2.4475 0001767 178.6276 181.4922 14.25634173  1305"},{"NORAD_CAT_ID":"69394","OBJECT_NAME":"QIANFAN-177","OBJECT_ID":"2026-124N","EPOCH":"2026-06-13T08:53:05.808768","TLE_LINE1":"1 69394U 26124N   26164.37020612 -.00000133  00000-0 -62490-4 0  9990","TLE_LINE2":"2 69394  88.9975   2.4720 0002716 160.6509 199.4788 14.25691049  1274"},{"NORAD_CAT_ID":"69395","OBJECT_NAME":"QIANFAN-178","OBJECT_ID":"2026-124P","EPOCH":"2026-06-13T00:27:53.635392","TLE_LINE1":"1 69395U 26124P   26164.01937078  .00000106  00000-0  37987-4 0  9996","TLE_LINE2":"2 69395  88.9642   2.5838 0002256 195.3700 164.7425 14.26159618  1224"},{"NORAD_CAT_ID":"69396","OBJECT_NAME":"QIANFAN-179","OBJECT_ID":"2026-124Q","EPOCH":"2026-06-13T12:14:53.248992","TLE_LINE1":"1 69396U 26124Q   26164.51033853  .00000106  00000-0  38067-4 0  9990","TLE_LINE2":"2 69396  88.9983   2.4553 0002277 157.4320 202.6974 14.26508230  1292"},{"NORAD_CAT_ID":"69397","OBJECT_NAME":"QIANFAN-180","OBJECT_ID":"2026-124R","EPOCH":"2026-06-13T13:55:49.634976","TLE_LINE1":"1 69397U 26124R   26164.58043559  .00000105  00000-0  37592-4 0  9993","TLE_LINE2":"2 69397  88.9984   2.4474 0002274 171.4653 188.6580 14.26488993  1309"},{"NORAD_CAT_ID":"69398","OBJECT_NAME":"QIANFAN-181","OBJECT_ID":"2026-124S","EPOCH":"2026-06-12T21:11:58.648416","TLE_LINE1":"1 69398U 26124S   26163.88331769 -.02096187  00000-0 -10777+1 0  9990","TLE_LINE2":"2 69398  88.9980   2.5286 0004483 184.0890 176.0264 14.19577709  1200"}]}