OBJECT_NAME,OBJECT_ID,EPOCH,MEAN_MOTION,ECCENTRICITY,INCLINATION,RA_OF_ASC_NODE,ARG_OF_PERICENTER,MEAN_ANOMALY,EPHEMERIS_TYPE,CLASSIFICATION_TYPE,NORAD_CAT_ID,ELEMENT_SET_NO,REV_AT_EPOCH,BSTAR,MEAN_MOTION_DOT,MEAN_MOTION_DDOT
STARLINK-37631,2026-123S,2026-06-13T14:00:01.999872,15.92645807,.00008629,53.1566,259.4560,58.3958,224.7053,0,U,69369,999,262,-.59261777E-2,-.2066101E-1,.1163759E-2
STARLINK-37673,2026-123T,2026-06-13T14:00:01.999872,15.92192622,.00009672,53.1566,259.4405,65.6581,224.8533,0,U,69370,999,262,-.59659079E-2,-.203186E-1,.11226829E-2
STARLINK-37645,2026-123U,2026-06-13T14:00:01.999872,15.91332176,.00008578,53.1567,259.4445,65.9777,222.5450,0,U,69371,999,262,-.66626072E-2,-.2168533E-1,.12576417E-2
STARLINK-37688,2026-123V,2026-06-13T14:00:01.999872,15.90299574,.00009455,53.1565,259.3993,61.7890,248.2393,0,U,69372,999,262,-.6936596E-2,-.1857163E-1,0
STARLINK-37685,2026-123W,2026-06-13T14:00:01.999872,15.90195871,.00009938,53.1564,259.3913,63.5864,250.2821,0,U,69373,999,262,-.69259815E-2,-.1846348E-1,0
STARLINK-37632,2026-123X,2026-06-13T14:00:01.999872,15.90247534,.00009185,53.1563,259.3843,61.7229,255.5714,0,U,69374,999,257,-.69629212E-2,-.1858856E-1,0
STARLINK-37454,2026-123Y,2026-06-13T14:00:01.999872,15.90176953,.00008637,53.1563,259.3694,59.4583,264.7567,0,U,69375,999,271,-.6898942E-2,-.1838526E-1,0
STARLINK-37485,2026-123Z,2026-06-13T14:00:01.999872,15.90186904,.00008758,53.1562,259.3604,58.7394,269.7447,0,U,69376,999,271,-.69286473E-2,-.1846088E-1,0
STARLINK-37439,2026-123AA,2026-06-13T14:00:01.999872,15.91924268,.00008824,53.1560,259.3058,64.0165,290.7224,0,U,69377,999,257,-.63165498E-2,-.2120346E-1,.12128315E-2
STARLINK-37376,2026-123AB,2026-06-13T14:00:01.999872,15.91033105,.00008287,53.1561,259.3212,66.2074,281.0344,0,U,69378,999,271,-.65213087E-2,-.2091134E-1,.11710337E-2
STARLINK-37383,2026-123AC,2026-06-13T14:00:01.999872,15.91827393,.00009108,53.1555,259.2612,61.4395,314.4029,0,U,69379,999,271,-.63486339E-2,-.2120455E-1,.12117498E-2
STARLINK-37411,2026-123AD,2026-06-13T14:00:01.999872,15.91060043,.00007921,53.1561,259.3060,61.5344,292.7293,0,U,69380,999,271,-.65642668E-2,-.2107602E-1,.1188715E-2
STARLINK-37427,2026-123AE,2026-06-13T14:00:01.999872,15.91891496,.00009033,53.1560,259.2750,62.7591,306.5167,0,U,69381,999,262,-.61078108E-2,-.2047719E-1,.11356711E-2
QIANFAN-165,2026-124A,2026-06-12T21:11:41.393472,14.19919653,.00041155,88.9978,2.5286,184.3071,175.8085,0,U,69382,999,120,-.10643886E+1,-.2084539E-1,0
QIANFAN-166,2026-124B,2026-06-13T07:17:31.541856,14.22919900,.00033032,89.0165,2.4476,197.5745,162.5333,0,U,69383,999,126,.38345546E-4,.101E-5,0
QIANFAN-167,2026-124C,2026-06-12T21:08:46.152672,14.20776910,.00021056,88.9978,2.5284,162.2755,197.8509,0,U,69384,999,120,-.10244004E+1,-.204198E-1,0
QIANFAN-168,2026-124D,2026-06-13T00:30:54.133632,14.24420262,.0003353,88.9982,2.5154,123.5245,236.6268,0,U,69385,999,122,.38459E-4,.104E-5,0
QIANFAN-169,2026-124E,2026-06-13T05:33:39.820896,14.25310421,.00133704,88.9745,2.4544,149.5722,210.6250,0,U,69386,999,125,.48024618E-4,.128E-5,0
QIANFAN-170,2026-124F,2026-06-13T07:14:19.079808,14.25630011,.00020808,88.9983,2.4799,165.6028,194.5224,0,U,69387,999,126,.92255263E-4,.233E-5,0
QIANFAN-171,2026-124G,2026-06-13T12:17:03.112512,14.25624109,.00020311,88.9984,2.4556,190.1034,170.0118,0,U,69388,999,129,.37378679E-4,.103E-5,0
QIANFAN-172,2026-124H,2026-06-13T08:55:02.583552,14.25677311,.00023052,88.9983,2.4718,181.6947,178.4239,0,U,69389,999,127,.36495275E-4,.101E-5,0
QIANFAN-173,2026-124J,2026-06-13T13:57:47.742048,14.25636517,.00024872,88.9984,2.4475,170.9207,189.2032,0,U,69390,999,130,.37664161E-4,.104E-5,0
QIANFAN-174,2026-124K,2026-06-13T12:16:14.205792,14.25793285,.00020526,88.9981,2.4554,166.0475,194.0775,0,U,69391,999,129,-.1026265E-4,-.1E-6,0
QIANFAN-175,2026-124L,2026-06-13T13:57:12.488256,14.25625442,.00026693,88.9984,2.4474,178.9604,181.1596,0,U,69392,999,130,.37644302E-4,.104E-5,0
QIANFAN-176,2026-124M,2026-06-13T13:56:57.858144,14.25634173,.00017667,88.9984,2.4475,178.6276,181.4922,0,U,69393,999,130,.37634153E-4,.104E-5,0
QIANFAN-177,2026-124N,2026-06-13T08:53:05.808768,14.25691049,.00027159,88.9975,2.4720,160.6509,199.4788,0,U,69394,999,127,-.6248952E-4,-.133E-5,0
QIANFAN-178,2026-124P,2026-06-13T00:27:53.635392,14.26159618,.00022565,88.9642,2.5838,195.3700,164.7425,0,U,69395,999,122,.37986857E-4,.106E-5,0
QIANFAN-179,2026-124Q,2026-06-13T12:14:53.248992,14.26508230,.0002277,88.9983,2.4553,157.4320,202.6974,0,U,69396,999,129,.38067497E-4,.106E-5,0
QIANFAN-180,2026-124R,2026-06-13T13:55:49.634976,14.26488993,.00022745,88.9984,2.4474,171.4653,188.6580,0,U,69397,999,130,.37591616E-4,.105E-5,0
QIANFAN-181,2026-124S,2026-06-12T21:11:58.648416,14.19577709,.0004483,88.9980,2.5286,184.0890,176.0264,0,U,69398,999,120,-.10776787E+1,-.2096187E-1,0
